[{"OBJECT_NAME":"UHETSAT","OBJECT_ID":"2023-185E","EPOCH":"2026-03-09T22:39:26.455680","MEAN_MOTION":15.29797662,"ECCENTRICITY":0.00118435,"INCLINATION":97.3584,"RA_OF_ASC_NODE":137.3576,"ARG_OF_PERICENTER":307.7346,"MEAN_ANOMALY":52.2821,"EPHEMERIS_TYPE":0,"CLASSIFICATION_TYPE":"U","NORAD_CAT_ID":58466,"ELEMENT_SET_NO":999,"REV_AT_EPOCH":12611,"BSTAR":0.00030513019,"MEAN_MOTION_DOT":8.749e-5,"MEAN_MOTION_DDOT":0},{"OBJECT_NAME":"STARLINK-32752","OBJECT_ID":"2025-006P","EPOCH":"2026-03-09T23:08:24.894528","MEAN_MOTION":15.27630395,"ECCENTRICITY":0.00010853,"INCLINATION":42.9964,"RA_OF_ASC_NODE":291.1118,"ARG_OF_PERICENTER":289.4209,"MEAN_ANOMALY":70.6525,"EPHEMERIS_TYPE":0,"CLASSIFICATION_TYPE":"U","NORAD_CAT_ID":62567,"ELEMENT_SET_NO":999,"REV_AT_EPOCH":6490,"BSTAR":0.0013186973,"MEAN_MOTION_DOT":0.0003626,"MEAN_MOTION_DDOT":0}]
